$$SOE
2460728.500000000, A.D. 2025-Feb-22 00:00:00.0000, 2.455727514970103E+07, -2.560580753648202E+08, 1.081018937485837E+08,
2460735.500000000, A.D. 2025-Mar-01 00:00:00.0000, 3.735311819466228E+07, -2.540694252450374E+08, 1.066415106286819E+08,
2460742.500000000, A.D. 2025-Mar-08 00:00:00.0000, 5.006458992543286E+07, -2.515072527348266E+08, 1.049403791956339E+08,
2460749.500000000, A.D. 2025-Mar-15 00:00:00.0000, 6.266179259090997E+07, -2.483712977980695E+08, 1.029998186123300E+08,
2460756.500000000, A.D. 2025-Mar-22 00:00:00.0000, 7.511443316385528E+07, -2.446625591403100E+08, 1.008217052820199E+08,
2460763.500000000, A.D. 2025-Mar-29 00:00:00.0000, 8.739187569706535E+07, -2.403833507454425E+08, 9.840849358177285E+07,
2460770.500000000, A.D. 2025-Apr-05 00:00:00.0000, 9.946320172217502E+07, -2.355373573770823E+08, 9.576323614406130E+07,
2460777.500000000, A.D. 2025-Apr-12 00:00:00.0000, 1.112972771163241E+08, -2.301296884269872E+08, 9.288960363675648E+07,
2460784.500000000, A.D. 2025-Apr-19 00:00:00.0000, 1.228628255654704E+08, -2.241669304104544E+08, 8.979190372380425E+07,
2460791.500000000, A.D. 2025-Apr-26 00:00:00.0000, 1.341285091669320E+08, -2.176571976626144E+08, 8.647509887554130E+07,
2460798.500000000, A.D. 2025-May-03 00:00:00.0000, 1.450630164981355E+08, -2.106101805004529E+08, 8.294482270453681E+07,
2460805.500000000, A.D. 2025-May-10 00:00:00.0000, 1.556351583218406E+08, -2.030371900597868E+08, 7.920739448388174E+07,
2460812.500000000, A.D. 2025-May-17 00:00:00.0000, 1.658139710219480E+08, -1.949511990001901E+08, 7.526983147457574E+07,
2460819.500000000, A.D. 2025-May-24 00:00:00.0000, 1.755688279078909E+08, -1.863668772226964E+08, 7.113985865629928E+07,
2460826.500000000, A.D. 2025-May-31 00:00:00.0000, 1.848695586637831E+08, -1.773006213341027E+08, 6.682591545601612E+07,
2460833.500000000, A.D. 2025-Jun-07 00:00:00.0000, 1.936865762721020E+08, -1.677705756704806E+08, 6.233715921117076E+07,
2460840.500000000, A.D. 2025-Jun-14 00:00:00.0000, 2.019910086280615E+08, -1.577966445429426E+08, 5.768346511886647E+07,
2460847.500000000, A.D. 2025-Jun-21 00:00:00.0000, 2.097548354769293E+08, -1.474004979545921E+08, 5.287542186904806E+07,
2460854.500000000, A.D. 2025-Jun-28 00:00:00.0000, 2.169510330465020E+08, -1.366055679959051E+08, 4.792432239599991E+07,
2460861.500000000, A.D. 2025-Jul-05 00:00:00.0000, 2.235537239301793E+08, -1.254370327452111E+08, 4.284214965861804E+07,
2460868.500000000, A.D. 2025-Jul-12 00:00:00.0000, 2.295383299392513E+08, -1.139217874985782E+08, 3.764155713191310E+07,
2460875.500000000, A.D. 2025-Jul-19 00:00:00.0000, 2.348817268694283E+08, -1.020884030100919E+08, 3.233584365138014E+07,
2460882.500000000, A.D. 2025-Jul-26 00:00:00.0000, 2.395623999824383E+08, -8.996707004203273E+07, 2.693892235865096E+07,
2460889.500000000, A.D. 2025-Aug-02 00:00:00.0000, 2.435605986832643E+08, -7.758952960199863E+07, 2.146528357241737E+07,
2460896.500000000, A.D. 2025-Aug-09 00:00:00.0000, 2.468584886681558E+08, -6.498898844232526E+07, 1.592995147107275E+07,
2460903.500000000, A.D. 2025-Aug-16 00:00:00.0000, 2.494402997370450E+08, -5.220001962914763E+07, 1.034843454452778E+07,
2460910.500000000, A.D. 2025-Aug-23 00:00:00.0000, 2.512924675691807E+08, -3.925844811962406E+07, 4.736669854784908E+06,
2460917.500000000, A.D. 2025-Aug-30 00:00:00.0000, 2.524037677286684E+08, -2.620122081273449E+07, -8.890386907928959E+05,
2460924.500000000, A.D. 2025-Sep-06 00:00:00.0000, 2.527654384295616E+08, -1.306626051686880E+07, -6.512087545054443E+06,
2460931.500000000, A.D. 2025-Sep-13 00:00:00.0000, 2.523712883653781E+08, 1.076929264464555E+05, -1.211564585159633E+07,
2460938.500000000, A.D. 2025-Sep-20 00:00:00.0000, 2.512177908739049E+08, 1.328125166780777E+07, -1.768273282674143E+07,
2460945.500000000, A.D. 2025-Sep-27 00:00:00.0000, 2.493041635810002E+08, 2.641456080547587E+07, -2.319629940601661E+07,
2460952.500000000, A.D. 2025-Oct-04 00:00:00.0000, 2.466324297416162E+08, 3.946749020715598E+07, -2.863931316529411E+07,
2460959.500000000, A.D. 2025-Oct-11 00:00:00.0000, 2.432074593491151E+08, 5.239983442119214E+07, -3.399484567042498E+07,
2460966.500000000, A.D. 2025-Oct-18 00:00:00.0000, 2.390369890376071E+08, 6.517151838209226E+07, -3.924616131647187E+07,
2460973.500000000, A.D. 2025-Oct-25 00:00:00.0000, 2.341316200217451E+08, 7.774280672903350E+07, -4.437680663501696E+07,
2460980.500000000, A.D. 2025-Nov-01 00:00:00.0000, 2.285047935946904E+08, 9.007451439696540E+07, -4.937069903177263E+07,
2460987.500000000, A.D. 2025-Nov-08 00:00:00.0000, 2.221727440597036E+08, 1.021282159673415E+08, -5.421221392245839E+07,
2460994.500000000, A.D. 2025-Nov-15 00:00:00.0000, 2.151544294411871E+08, 1.138664511832012E+08, -5.888626925041742E+07,
2461001.500000000, A.D. 2025-Nov-22 00:00:00.0000, 2.074714409456825E+08, 1.252529243267871E+08, -6.337840638627537E+07,
2461008.500000000, A.D. 2025-Nov-29 00:00:00.0000, 1.991478919443519E+08, 1.362526961457814E+08, -6.767486631501706E+07,
2461015.500000000, A.D. 2025-Dec-06 00:00:00.0000, 1.902102854745865E+08, 1.468323659144002E+08, -7.176265998530109E+07,
2461022.500000000, A.D. 2025-Dec-13 00:00:00.0000, 1.806873623547423E+08, 1.569602381983618E+08, -7.562963233019952E+07,
2461029.500000000, A.D. 2025-Dec-20 00:00:00.0000, 1.706099353595341E+08, 1.666064734875440E+08, -7.926451950545469E+07,
2461036.500000000, A.D. 2025-Dec-27 00:00:00.0000, 1.600107105532592E+08, 1.757432237080610E+08, -8.265699845948318E+07,
2461043.500000000, A.D. 2026-Jan-03 00:00:00.0000, 1.489240966906794E+08, 1.843447507424968E+08, -8.579772832228231E+07,
2461050.500000000, A.D. 2026-Jan-10 00:00:00.0000, 1.373860053015956E+08, 1.923875263538695E+08, -8.867838340121379E+07,
2461057.500000000, A.D. 2026-Jan-17 00:00:00.0000, 1.254336442665233E+08, 1.998503128345395E+08, -9.129167768401961E+07,
2461064.500000000, A.D. 2026-Jan-24 00:00:00.0000, 1.131053075429264E+08, 2.067142241546201E+08, -9.363138087122066E+07,
2461071.500000000, A.D. 2026-Jan-31 00:00:00.0000, 1.004401635956817E+08, 2.129627676837145E+08, -9.569232609560342E+07,
2461078.500000000, A.D. 2026-Feb-07 00:00:00.0000, 8.747804501871453E+07, 2.185818668203315E+08, -9.747040962141001E+07,
2461085.500000000, A.D. 2026-Feb-14 00:00:00.0000, 7.425924187400000E+07, 2.235598651902585E+08, -9.896258294448115E+07,
2461092.500000000, A.D. 2026-Feb-21 00:00:00.0000, 6.082430121907005E+07, 2.278875139217297E+08, -1.001668377808722E+08,
2461099.500000000, A.D. 2026-Feb-28 00:00:00.0000, 4.721383360957099E+07, 2.315579442893108E+08, -1.010821843308464E+08,
2461106.500000000, A.D. 2026-Mar-07 00:00:00.0000, 3.346832613804893E+07, 2.345666250688367E+08, -1.017086234093970E+08,
2461113.500000000, A.D. 2026-Mar-14 00:00:00.0000, 1.962796612224276E+07, 2.369113037174889E+08, -1.020471135624323E+08,
2461120.500000000, A.D. 2026-Mar-21 00:00:00.0000, 5.732478325299039E+06, 2.385919358283207E+08, -1.020995338231292E+08,
2461127.500000000, A.D. 2026-Mar-28 00:00:00.0000, -8.179025457226260E+06, 2.396106054662100E+08, -1.018686425572732E+08,
2461134.500000000, A.D. 2026-Apr-04 00:00:00.0000, -2.206818446959428E+07, 2.399714370132637E+08, -1.013580331271891E+08,
2461141.500000000, A.D. 2026-Apr-11 00:00:00.0000, -3.589751411410021E+07, 2.396804997459379E+08, -1.005720871222214E+08,
2461148.500000000, A.D. 2026-Apr-18 00:00:00.0000, -4.963051783243344E+07, 2.387457066742887E+08, -9.951592583480904E+07,
2461155.500000000, A.D. 2026-Apr-25 00:00:00.0000, -6.323178577508401E+07, 2.371767091236802E+08, -9.819536060476162E+07,
2461162.500000000, A.D. 2026-May-02 00:00:00.0000, -7.666708047240487E+07, 2.349847884014097E+08, -9.661684260057220E+07,
2461169.500000000, A.D. 2026-May-09 00:00:00.0000, -8.990340978332762E+07, 2.321827457432018E+08, -9.478741255766061E+07,
2461176.500000000, A.D. 2026-May-16 00:00:00.0000, -1.029090872830146E+08, 2.287847918192060E+08, -9.271465094640610E+07,
2461183.500000000, A.D. 2026-May-23 00:00:00.0000, -1.156537806898465E+08, 2.248064378453451E+08, -9.040662890063471E+07,
2461190.500000000, A.D. 2026-May-30 00:00:00.0000, -1.281085511366621E+08, 2.202643895344314E+08, -8.787186006484748E+07,
2461197.500000000, A.D. 2026-Jun-06 00:00:00.0000, -1.402458843586982E+08, 2.151764414102885E+08, -8.511925391479313E+07,
2461204.500000000, A.D. 2026-Jun-13 00:00:00.0000, -1.520397109198035E+08, 2.095613723403232E+08, -8.215807111018845E+07,
2461211.500000000, A.D. 2026-Jun-20 00:00:00.0000, -1.634654168043851E+08, 2.034388457628526E+08, -7.899788079395059E+07,
2461218.500000000, A.D. 2026-Jun-27 00:00:00.0000, -1.744998468904758E+08, 1.968293147212744E+08, -7.564851986392556E+07,
2461225.500000000, A.D. 2026-Jul-04 00:00:00.0000, -1.851213021069224E+08, 1.897539312679403E+08, -7.212005437869358E+07,
2461232.500000000, A.D. 2026-Jul-11 00:00:00.0000, -1.953095308097183E+08, 1.822344603465590E+08, -6.842274319220108E+07,
2461239.500000000, A.D. 2026-Jul-18 00:00:00.0000, -2.050457150463653E+08, 1.742931983380238E+08, -6.456700385418934E+07,
2461246.500000000, A.D. 2026-Jul-25 00:00:00.0000, -2.143124524086713E+08, 1.659528963587589E+08, -6.056338078102588E+07,
2461253.500000000, A.D. 2026-Aug-01 00:00:00.0000, -2.230937341085345E+08, 1.572366882853233E+08, -5.642251568275245E+07,
2461260.500000000, A.D. 2026-Aug-08 00:00:00.0000, -2.313749196986732E+08, 1.481680234349805E+08, -5.215512022463195E+07,
2461267.500000000, A.D. 2026-Aug-15 00:00:00.0000, -2.391427086120876E+08, 1.387706042694690E+08, -4.777195086157775E+07,
2461274.500000000, A.D. 2026-Aug-22 00:00:00.0000, -2.463851098233802E+08, 1.290683302183488E+08, -4.328378559858398E+07,
2461281.500000000, A.D. 2026-Aug-29 00:00:00.0000, -2.530914124221367E+08, 1.190852460940773E+08, -3.870140249354083E+07,
2461288.500000000, A.D. 2026-Sep-05 00:00:00.0000, -2.592521554161191E+08, 1.088454920587315E+08, -3.403556023722364E+07,
2461295.500000000, A.D. 2026-Sep-12 00:00:00.0000, -2.648590946948735E+08, 9.837325743714324E+07, -2.929698072014865E+07,
$$EOE